ONEWEB-0492             
1 54114U 22138B   25165.60004014  .00000070  00000+0  14354-3 0  9991
2 54114  87.9224  18.0492 0002005  88.6476 271.4886 13.19726392128357
ONEWEB-0495             
1 54115U 22138C   25165.65374268 -.00000056  00000+0 -17332-3 0  9993
2 54115  87.9220  18.0495 0001961 107.7605 252.3742 13.19724461128347
ONEWEB-0497             
1 54116U 22138D   25165.81800642 -.00000078  00000+0 -22752-3 0  9998
2 54116  87.9219  17.9894 0001869  89.4017 270.7330 13.19724212128359
ONEWEB-0499             
1 54117U 22138E   25165.87644720  .00000043  00000+0  76155-4 0  9995
2 54117  87.9220  17.9949 0001489  91.4544 268.6760 13.19726421128378
ONEWEB-0500             
1 54118U 22138F   25165.65216301  .00004323  00000+0  10764-1 0  9998
2 54118  87.9219  18.0246 0002231  86.7887 273.3501 13.19704851128359
ONEWEB-0501             
1 54119U 22138G   25165.60636538  .00000100  00000+0  21792-3 0  9996
2 54119  87.9219  18.0275 0001811 100.2728 259.8609 13.19726669128327
ONEWEB-0502             
1 54120U 22138H   25165.66796030 -.00000019  00000+0 -79021-4 0  9998
2 54120  87.9217  17.9992 0001679  93.3690 266.7635 13.19726566128358
ONEWEB-0503             
1 54121U 22138J   25165.88434326  .00000049  00000+0  90601-4 0  9998
2 54121  87.9214  17.9610 0001536  81.9913 278.1394 13.19726799128375
